[{"OBJECT_NAME":"STARLINK-5468","OBJECT_ID":"2022-175V","EPOCH":"2026-03-09T07:17:35.918880","MEAN_MOTION":15.08838034,"ECCENTRICITY":0.00014676,"INCLINATION":53.2184,"RA_OF_ASC_NODE":45.6522,"ARG_OF_PERICENTER":94.9163,"MEAN_ANOMALY":265.1997,"EPHEMERIS_TYPE":0,"CLASSIFICATION_TYPE":"U","NORAD_CAT_ID":54777,"ELEMENT_SET_NO":999,"REV_AT_EPOCH":17986,"BSTAR":-1.149131e-5,"MEAN_MOTION_DOT":-4.71e-6,"MEAN_MOTION_DDOT":0},{"OBJECT_NAME":"OBJECT M","OBJECT_ID":"2017-042M","EPOCH":"2026-03-09T22:38:39.337440","MEAN_MOTION":15.07991931,"ECCENTRICITY":0.0005117,"INCLINATION":97.4139,"RA_OF_ASC_NODE":234.2602,"ARG_OF_PERICENTER":83.1417,"MEAN_ANOMALY":277.0393,"EPHEMERIS_TYPE":0,"CLASSIFICATION_TYPE":"U","NORAD_CAT_ID":42836,"ELEMENT_SET_NO":999,"REV_AT_EPOCH":47205,"BSTAR":0.00047182615,"MEAN_MOTION_DOT":7.201e-5,"MEAN_MOTION_DDOT":0}]
